{
  "type": "FeatureCollection",
  "features": [
    {
      "type": "Feature",
      "properties": {
        "norad_id": 37836,
        "name": "EUTELSAT 16A",
        "group": "eutelsat",
        "lat": 0.06868485851550839,
        "lon": 61.29035898326859,
        "alt_km": 35806.56026900207,
        "timestamp": "2025-12-25T20:42:38.358493+00:00",
        "meta_object_name": "EUTELSAT 16A",
        "meta_object_id": "2011-057A",
        "meta_epoch": "2025-12-24T23:26:49.113312",
        "meta_mean_motion": 1.00271109,
        "meta_eccentricity": 0.00058413,
        "meta_inclination": 0.0561,
        "meta_ra_of_asc_node": 348.7482,
        "meta_arg_of_pericenter": 286.97,
        "meta_mean_anomaly": 185.7141,
        "meta_ephemeris_type": 0,
        "meta_classification_type": "U",
        "meta_norad_cat_id": 37836,
        "meta_element_set_no": 999,
        "meta_rev_at_epoch": 558,
        "meta_bstar": 0,
        "meta_mean_motion_dot": 1.25e-06,
        "meta_mean_motion_ddot": 0,
        "tle_line1": "1 37836U 11057A   25358.97695733  .00000125  00000+0  00000+0 0  9999",
        "tle_line2": "2 37836   0.0561 348.7482 0005841 286.9700 185.7141  1.00271109  5583"
      },
      "geometry": {
        "type": "Point",
        "coordinates": [
          61.29035898326859,
          0.06868485851550839
        ]
      }
    },
    {
      "type": "Feature",
      "properties": {
        "norad_id": 38992,
        "name": "EUTELSAT 21B",
        "group": "eutelsat",
        "lat": 0.08032521192557428,
        "lon": 66.86595045182662,
        "alt_km": 35797.73678293685,
        "timestamp": "2025-12-25T20:42:38.358504+00:00",
        "meta_object_name": "EUTELSAT 21B",
        "meta_object_id": "2012-062B",
        "meta_epoch": "2025-12-24T23:28:26.457600",
        "meta_mean_motion": 1.00271068,
        "meta_eccentricity": 0.00032446,
        "meta_inclination": 0.0657,
        "meta_ra_of_asc_node": 349.5129,
        "meta_arg_of_pericenter": 289.9649,
        "meta_mean_anomaly": 187.9548,
        "meta_ephemeris_type": 0,
        "meta_classification_type": "U",
        "meta_norad_cat_id": 38992,
        "meta_element_set_no": 999,
        "meta_rev_at_epoch": 4808,
        "meta_bstar": 0,
        "meta_mean_motion_dot": 1.51e-06,
        "meta_mean_motion_ddot": 0,
        "tle_line1": "1 38992U 12062B   25358.97808400  .00000151  00000+0  00000+0 0  9996",
        "tle_line2": "2 38992   0.0657 349.5129 0003244 289.9649 187.9548  1.00271068 48081"
      },
      "geometry": {
        "type": "Point",
        "coordinates": [
          66.86595045182662,
          0.08032521192557428
        ]
      }
    },
    {
      "type": "Feature",
      "properties": {
        "norad_id": 39020,
        "name": "EUTELSAT 70B",
        "group": "eutelsat",
        "lat": 0.0666748476624162,
        "lon": 115.7332153089447,
        "alt_km": 35799.4901904206,
        "timestamp": "2025-12-25T20:42:38.358516+00:00",
        "meta_object_name": "EUTELSAT 70B",
        "meta_object_id": "2012-069A",
        "meta_epoch": "2025-12-25T04:50:18.132000",
        "meta_mean_motion": 1.00271933,
        "meta_eccentricity": 0.00041907,
        "meta_inclination": 0.0618,
        "meta_ra_of_asc_node": 347.771,
        "meta_arg_of_pericenter": 267.2832,
        "meta_mean_anomaly": 341.9806,
        "meta_ephemeris_type": 0,
        "meta_classification_type": "U",
        "meta_norad_cat_id": 39020,
        "meta_element_set_no": 999,
        "meta_rev_at_epoch": 4776,
        "meta_bstar": 0,
        "meta_mean_motion_dot": -2.2e-07,
        "meta_mean_motion_ddot": 0,
        "tle_line1": "1 39020U 12069A   25359.20159875 -.00000022  00000+0  00000+0 0  9996",
        "tle_line2": "2 39020   0.0618 347.7710 0004190 267.2832 341.9806  1.00271933 47765"
      },
      "geometry": {
        "type": "Point",
        "coordinates": [
          115.7332153089447,
          0.0666748476624162
        ]
      }
    },
    {
      "type": "Feature",
      "properties": {
        "norad_id": 39122,
        "name": "EUTELSAT 117 WEST A",
        "group": "eutelsat",
        "lat": -0.024128953056725397,
        "lon": -71.52158623222655,
        "alt_km": 35774.89491542016,
        "timestamp": "2025-12-25T20:42:38.358528+00:00",
        "meta_object_name": "EUTELSAT 117 WEST A",
        "meta_object_id": "2013-012A",
        "meta_epoch": "2025-12-25T06:10:38.820000",
        "meta_mean_motion": 1.00270796,
        "meta_eccentricity": 0.00027534,
        "meta_inclination": 0.0187,
        "meta_ra_of_asc_node": 321.098,
        "meta_arg_of_pericenter": 316.4443,
        "meta_mean_anomaly": 152.344,
        "meta_ephemeris_type": 0,
        "meta_classification_type": "U",
        "meta_norad_cat_id": 39122,
        "meta_element_set_no": 999,
        "meta_rev_at_epoch": 4668,
        "meta_bstar": 0,
        "meta_mean_motion_dot": 8e-08,
        "meta_mean_motion_ddot": 0,
        "tle_line1": "1 39122U 13012A   25359.25739375  .00000008  00000+0  00000+0 0  9995",
        "tle_line2": "2 39122   0.0187 321.0980 0002753 316.4443 152.3440  1.00270796 46685"
      },
      "geometry": {
        "type": "Point",
        "coordinates": [
          -71.52158623222655,
          -0.024128953056725397
        ]
      }
    },
    {
      "type": "Feature",
      "properties": {
        "norad_id": 39163,
        "name": "EUTELSAT 7B",
        "group": "eutelsat",
        "lat": 0.058515895703194834,
        "lon": 52.31549512264379,
        "alt_km": 35786.07077397605,
        "timestamp": "2025-12-25T20:42:38.358541+00:00",
        "meta_object_name": "EUTELSAT 7B",
        "meta_object_id": "2013-022A",
        "meta_epoch": "2025-12-24T23:24:19.351872",
        "meta_mean_motion": 1.00271638,
        "meta_eccentricity": 0.00046087,
        "meta_inclination": 0.0657,
        "meta_ra_of_asc_node": 9.0547,
        "meta_arg_of_pericenter": 313.3925,
        "meta_mean_anomaly": 129.3681,
        "meta_ephemeris_type": 0,
        "meta_classification_type": "U",
        "meta_norad_cat_id": 39163,
        "meta_element_set_no": 999,
        "meta_rev_at_epoch": 4620,
        "meta_bstar": 0,
        "meta_mean_motion_dot": 6.9e-07,
        "meta_mean_motion_ddot": 0,
        "tle_line1": "1 39163U 13022A   25358.97522398  .00000069  00000+0  00000+0 0  9991",
        "tle_line2": "2 39163   0.0657   9.0547 0004608 313.3925 129.3681  1.00271638 46201"
      },
      "geometry": {
        "type": "Point",
        "coordinates": [
          52.31549512264379,
          0.058515895703194834
        ]
      }
    },
    {
      "type": "Feature",
      "properties": {
        "norad_id": 39612,
        "name": "EXPRESS-AT1",
        "group": "eutelsat",
        "lat": 0.012466090980536203,
        "lon": 101.26201707530042,
        "alt_km": 35782.588498713696,
        "timestamp": "2025-12-25T20:42:38.358553+00:00",
        "meta_object_name": "EXPRESS-AT1",
        "meta_object_id": "2014-010A",
        "meta_epoch": "2025-12-25T01:46:38.582688",
        "meta_mean_motion": 1.0027131,
        "meta_eccentricity": 8.829e-05,
        "meta_inclination": 0.0118,
        "meta_ra_of_asc_node": 294.5388,
        "meta_arg_of_pericenter": 184.5356,
        "meta_mean_anomaly": 57.4217,
        "meta_ephemeris_type": 0,
        "meta_classification_type": "U",
        "meta_norad_cat_id": 39612,
        "meta_element_set_no": 999,
        "meta_rev_at_epoch": 4307,
        "meta_bstar": 0,
        "meta_mean_motion_dot": 1e-06,
        "meta_mean_motion_ddot": 0,
        "tle_line1": "1 39612U 14010A   25359.07405767  .00000100  00000+0  00000+0 0  9996",
        "tle_line2": "2 39612   0.0118 294.5388 0000882 184.5356  57.4217  1.00271310 43077"
      },
      "geometry": {
        "type": "Point",
        "coordinates": [
          101.26201707530042,
          0.012466090980536203
        ]
      }
    },
    {
      "type": "Feature",
      "properties": {
        "norad_id": 39613,
        "name": "EXPRESS-AT2",
        "group": "eutelsat",
        "lat": -0.010133458048484723,
        "lon": -174.88653074601226,
        "alt_km": 35785.84796990664,
        "timestamp": "2025-12-25T20:42:38.358566+00:00",
        "meta_object_name": "EXPRESS-AT2",
        "meta_object_id": "2014-010B",
        "meta_epoch": "2025-12-25T05:13:13.086912",
        "meta_mean_motion": 1.00271893,
        "meta_eccentricity": 0.00015864,
        "meta_inclination": 0.0164,
        "meta_ra_of_asc_node": 293.9073,
        "meta_arg_of_pericenter": 338.8079,
        "meta_mean_anomaly": 39.4318,
        "meta_ephemeris_type": 0,
        "meta_classification_type": "U",
        "meta_norad_cat_id": 39613,
        "meta_element_set_no": 999,
        "meta_rev_at_epoch": 4275,
        "meta_bstar": 0,
        "meta_mean_motion_dot": -2.6e-06,
        "meta_mean_motion_ddot": 0,
        "tle_line1": "1 39613U 14010B   25359.21751258 -.00000260  00000+0  00000+0 0  9990",
        "tle_line2": "2 39613   0.0164 293.9073 0001586 338.8079  39.4318  1.00271893 42753"
      },
      "geometry": {
        "type": "Point",
        "coordinates": [
          -174.88653074601226,
          -0.010133458048484723
        ]
      }
    }
  ]
}